[{"OBJECT_NAME":"STARLINK-33877","OBJECT_ID":"2025-098H","EPOCH":"2026-03-09T22:38:27.560256","MEAN_MOTION":14.98349502,"ECCENTRICITY":0.00026954,"INCLINATION":70.0009,"RA_OF_ASC_NODE":273.6756,"ARG_OF_PERICENTER":259.6474,"MEAN_ANOMALY":100.4382,"EPHEMERIS_TYPE":0,"CLASSIFICATION_TYPE":"U","NORAD_CAT_ID":63933,"ELEMENT_SET_NO":999,"REV_AT_EPOCH":4661,"BSTAR":0.00048096011,"MEAN_MOTION_DOT":5.653e-5,"MEAN_MOTION_DDOT":0},{"OBJECT_NAME":"DELTA 1 DEB","OBJECT_ID":"1978-026DN","EPOCH":"2026-03-09T22:54:01.614240","MEAN_MOTION":14.93139428,"ECCENTRICITY":0.00397584,"INCLINATION":98.1052,"RA_OF_ASC_NODE":65.3894,"ARG_OF_PERICENTER":90.2844,"MEAN_ANOMALY":324.2277,"EPHEMERIS_TYPE":0,"CLASSIFICATION_TYPE":"U","NORAD_CAT_ID":12269,"ELEMENT_SET_NO":999,"REV_AT_EPOCH":37927,"BSTAR":0.0013156462,"MEAN_MOTION_DOT":0.00013895,"MEAN_MOTION_DDOT":0}]
